CCSDS_OMM_VERS = 2.0
CREATION_DATE  = 
ORIGINATOR     = 

OBJECT_NAME    = ATLAS CENTAUR 2
OBJECT_ID      = 1963-047A
CENTER_NAME    = EARTH
REF_FRAME      = TEME
TIME_SYSTEM    = UTC
MEAN_ELEMENT_THEORY = SGP/SGP4

EPOCH          = 2025-11-22T06:51:59.942880
MEAN_MOTION    = 14.11583307
ECCENTRICITY   = .05495704
INCLINATION    = 30.3565
RA_OF_ASC_NODE = 75.6841
ARG_OF_PERICENTER = 214.0483
MEAN_ANOMALY   = 142.3669

EPHEMERIS_TYPE = 0
CLASSIFICATION_TYPE = U
NORAD_CAT_ID   = 694
ELEMENT_SET_NO = 999
REV_AT_EPOCH   = 11643
BSTAR          = .57918598E-3
MEAN_MOTION_DOT = .482E-4
MEAN_MOTION_DDOT = 0

CCSDS_OMM_VERS = 2.0
CREATION_DATE  = 
ORIGINATOR     = 

OBJECT_NAME    = THOR AGENA D R/B
OBJECT_ID      = 1964-002A
CENTER_NAME    = EARTH
REF_FRAME      = TEME
TIME_SYSTEM    = UTC
MEAN_ELEMENT_THEORY = SGP/SGP4

EPOCH          = 2025-11-22T23:24:42.831072
MEAN_MOTION    = 14.33942599
ECCENTRICITY   = .0032409
INCLINATION    = 99.1219
RA_OF_ASC_NODE = 329.5252
ARG_OF_PERICENTER = 207.7058
MEAN_ANOMALY   = 152.2400

EPHEMERIS_TYPE = 0
CLASSIFICATION_TYPE = U
NORAD_CAT_ID   = 733
ELEMENT_SET_NO = 999
REV_AT_EPOCH   = 22300
BSTAR          = .1052E-3
MEAN_MOTION_DOT = .246E-5
MEAN_MOTION_DDOT = 0

CCSDS_OMM_VERS = 2.0
CREATION_DATE  = 
ORIGINATOR     = 

OBJECT_NAME    = SL-3 R/B
OBJECT_ID      = 1964-053B
CENTER_NAME    = EARTH
REF_FRAME      = TEME
TIME_SYSTEM    = UTC
MEAN_ELEMENT_THEORY = SGP/SGP4

EPOCH          = 2025-11-23T01:36:49.324320
MEAN_MOTION    = 14.61244824
ECCENTRICITY   = .0072082
INCLINATION    = 65.0769
RA_OF_ASC_NODE = 283.7962
ARG_OF_PERICENTER = 326.9689
MEAN_ANOMALY   = 32.6918

EPHEMERIS_TYPE = 0
CLASSIFICATION_TYPE = U
NORAD_CAT_ID   = 877
ELEMENT_SET_NO = 999
REV_AT_EPOCH   = 25121
BSTAR          = .11756E-3
MEAN_MOTION_DOT = .478E-5
MEAN_MOTION_DDOT = 0

CCSDS_OMM_VERS = 2.0
CREATION_DATE  = 
ORIGINATOR     = 

OBJECT_NAME    = SL-8 R/B
OBJECT_ID      = 1967-045B
CENTER_NAME    = EARTH
REF_FRAME      = TEME
TIME_SYSTEM    = UTC
MEAN_ELEMENT_THEORY = SGP/SGP4

EPOCH          = 2025-11-23T01:38:50.290368
MEAN_MOTION    = 14.45514269
ECCENTRICITY   = .0065143
INCLINATION    = 74.0098
RA_OF_ASC_NODE = 187.1932
ARG_OF_PERICENTER = 220.9345
MEAN_ANOMALY   = 138.6913

EPHEMERIS_TYPE = 0
CLASSIFICATION_TYPE = U
NORAD_CAT_ID   = 2802
ELEMENT_SET_NO = 999
REV_AT_EPOCH   = 7361
BSTAR          = .91377E-4
MEAN_MOTION_DOT = .302E-5
MEAN_MOTION_DDOT = 0

CCSDS_OMM_VERS = 2.0
CREATION_DATE  = 
ORIGINATOR     = 

OBJECT_NAME    = SL-8 R/B
OBJECT_ID      = 1968-040B
CENTER_NAME    = EARTH
REF_FRAME      = TEME
TIME_SYSTEM    = UTC
MEAN_ELEMENT_THEORY = SGP/SGP4

EPOCH          = 2025-11-22T22:19:52.461120
MEAN_MOTION    = 15.02338728
ECCENTRICITY   = .0024182
INCLINATION    = 74.0294
RA_OF_ASC_NODE = 171.6830
ARG_OF_PERICENTER = 18.4628
MEAN_ANOMALY   = 341.7432

EPHEMERIS_TYPE = 0
CLASSIFICATION_TYPE = U
NORAD_CAT_ID   = 3230
ELEMENT_SET_NO = 999
REV_AT_EPOCH   = 7397
BSTAR          = .2501E-3
MEAN_MOTION_DOT = .3286E-4
MEAN_MOTION_DDOT = 0

CCSDS_OMM_VERS = 2.0
CREATION_DATE  = 
ORIGINATOR     = 

OBJECT_NAME    = OAO 2
OBJECT_ID      = 1968-110A
CENTER_NAME    = EARTH
REF_FRAME      = TEME
TIME_SYSTEM    = UTC
MEAN_ELEMENT_THEORY = SGP/SGP4

EPOCH          = 2025-11-22T12:06:29.854080
MEAN_MOTION    = 14.47225445
ECCENTRICITY   = .000498
INCLINATION    = 34.9916
RA_OF_ASC_NODE = 143.6250
ARG_OF_PERICENTER = 52.7288
MEAN_ANOMALY   = 307.3856

EPHEMERIS_TYPE = 0
CLASSIFICATION_TYPE = U
NORAD_CAT_ID   = 3597
ELEMENT_SET_NO = 999
REV_AT_EPOCH   = 356
BSTAR          = .76214E-4
MEAN_MOTION_DOT = .263E-5
MEAN_MOTION_DDOT = 0

CCSDS_OMM_VERS = 2.0
CREATION_DATE  = 
ORIGINATOR     = 

OBJECT_NAME    = ISIS 1
OBJECT_ID      = 1969-009A
CENTER_NAME    = EARTH
REF_FRAME      = TEME
TIME_SYSTEM    = UTC
MEAN_ELEMENT_THEORY = SGP/SGP4

EPOCH          = 2025-11-23T01:22:19.785216
MEAN_MOTION    = 11.30343100
ECCENTRICITY   = .1707089
INCLINATION    = 88.4499
RA_OF_ASC_NODE = 166.9491
ARG_OF_PERICENTER = 304.4810
MEAN_ANOMALY   = 40.6310

EPHEMERIS_TYPE = 0
CLASSIFICATION_TYPE = U
NORAD_CAT_ID   = 3669
ELEMENT_SET_NO = 999
REV_AT_EPOCH   = 33648
BSTAR          = .11289E-3
MEAN_MOTION_DOT = .155E-5
MEAN_MOTION_DDOT = 0

CCSDS_OMM_VERS = 2.0
CREATION_DATE  = 
ORIGINATOR     = 

OBJECT_NAME    = SERT 2
OBJECT_ID      = 1970-009A
CENTER_NAME    = EARTH
REF_FRAME      = TEME
TIME_SYSTEM    = UTC
MEAN_ELEMENT_THEORY = SGP/SGP4

EPOCH          = 2025-11-22T20:25:27.086880
MEAN_MOTION    = 13.58713911
ECCENTRICITY   = .0005749
INCLINATION    = 99.2619
RA_OF_ASC_NODE = 270.8642
ARG_OF_PERICENTER = 78.3908
MEAN_ANOMALY   = 341.6025

EPHEMERIS_TYPE = 0
CLASSIFICATION_TYPE = U
NORAD_CAT_ID   = 4327
ELEMENT_SET_NO = 999
REV_AT_EPOCH   = 76538
BSTAR          = .11905E-3
MEAN_MOTION_DOT = .46E-6
MEAN_MOTION_DDOT = 0

CCSDS_OMM_VERS = 2.0
CREATION_DATE  = 
ORIGINATOR     = 

OBJECT_NAME    = SL-3 R/B
OBJECT_ID      = 1971-028B
CENTER_NAME    = EARTH
REF_FRAME      = TEME
TIME_SYSTEM    = UTC
MEAN_ELEMENT_THEORY = SGP/SGP4

EPOCH          = 2025-11-23T02:19:53.240736
MEAN_MOTION    = 15.53078934
ECCENTRICITY   = .00202
INCLINATION    = 81.2383
RA_OF_ASC_NODE = 182.8315
ARG_OF_PERICENTER = 312.6824
MEAN_ANOMALY   = 47.2722

EPHEMERIS_TYPE = 0
CLASSIFICATION_TYPE = U
NORAD_CAT_ID   = 5118
ELEMENT_SET_NO = 999
REV_AT_EPOCH   = 97208
BSTAR          = .39339E-3
MEAN_MOTION_DOT = .24882E-3
MEAN_MOTION_DDOT = 0

CCSDS_OMM_VERS = 2.0
CREATION_DATE  = 
ORIGINATOR     = 

OBJECT_NAME    = ASTEX 1
OBJECT_ID      = 1971-089A
CENTER_NAME    = EARTH
REF_FRAME      = TEME
TIME_SYSTEM    = UTC
MEAN_ELEMENT_THEORY = SGP/SGP4

EPOCH          = 2025-11-22T21:46:56.188128
MEAN_MOTION    = 14.50607117
ECCENTRICITY   = .0017881
INCLINATION    = 92.7130
RA_OF_ASC_NODE = 117.2045
ARG_OF_PERICENTER = 86.1612
MEAN_ANOMALY   = 274.1638

EPHEMERIS_TYPE = 0
CLASSIFICATION_TYPE = U
NORAD_CAT_ID   = 5560
ELEMENT_SET_NO = 999
REV_AT_EPOCH   = 84682
BSTAR          = .1527E-3
MEAN_MOTION_DOT = .599E-5
MEAN_MOTION_DDOT = 0

CCSDS_OMM_VERS = 2.0
CREATION_DATE  = 
ORIGINATOR     = 

OBJECT_NAME    = SL-8 R/B
OBJECT_ID      = 1971-119B
CENTER_NAME    = EARTH
REF_FRAME      = TEME
TIME_SYSTEM    = UTC
MEAN_ELEMENT_THEORY = SGP/SGP4

EPOCH          = 2025-11-23T02:29:23.111808
MEAN_MOTION    = 14.35196100
ECCENTRICITY   = .0560547
INCLINATION    = 73.8888
RA_OF_ASC_NODE = 14.5678
ARG_OF_PERICENTER = 2.8175
MEAN_ANOMALY   = 357.5907

EPHEMERIS_TYPE = 0
CLASSIFICATION_TYPE = U
NORAD_CAT_ID   = 5730
ELEMENT_SET_NO = 999
REV_AT_EPOCH   = 64018
BSTAR          = .51879E-3
MEAN_MOTION_DOT = .9828E-4
MEAN_MOTION_DDOT = 0

CCSDS_OMM_VERS = 2.0
CREATION_DATE  = 
ORIGINATOR     = 

OBJECT_NAME    = OAO 3 (COPERNICUS)
OBJECT_ID      = 1972-065A
CENTER_NAME    = EARTH
REF_FRAME      = TEME
TIME_SYSTEM    = UTC
MEAN_ELEMENT_THEORY = SGP/SGP4

EPOCH          = 2025-11-23T01:37:26.050368
MEAN_MOTION    = 14.59881461
ECCENTRICITY   = .0006599
INCLINATION    = 35.0044
RA_OF_ASC_NODE = 184.7290
ARG_OF_PERICENTER = 1.5038
MEAN_ANOMALY   = 159.7010

EPHEMERIS_TYPE = 0
CLASSIFICATION_TYPE = U
NORAD_CAT_ID   = 6153
ELEMENT_SET_NO = 999
REV_AT_EPOCH   = 83060
BSTAR          = .81908E-4
MEAN_MOTION_DOT = .377E-5
MEAN_MOTION_DDOT = 0

