ATLAS CENTAUR 2         
1 00694U 63047A   25326.28611045  .00004820  00000+0  57919-3 0  9991
2 00694  30.3565  75.6841 0549570 214.0483 142.3669 14.11583307116435
THOR AGENA D R/B        
1 00733U 64002A   25326.97549573  .00000246  00000+0  10520-3 0  9994
2 00733  99.1219 329.5252 0032409 207.7058 152.2400 14.33942599223001
SL-3 R/B                
1 00877U 64053B   25327.06723755  .00000478  00000+0  11756-3 0  9995
2 00877  65.0769 283.7962 0072082 326.9689  32.6918 14.61244824251212
SL-8 R/B                
1 02802U 67045B   25327.06863762  .00000302  00000+0  91377-4 0  9996
2 02802  74.0098 187.1932 0065143 220.9345 138.6913 14.45514269 73616
SL-8 R/B                
1 03230U 68040B   25326.93046830  .00003286  00000+0  25010-3 0  9996
2 03230  74.0294 171.6830 0024182  18.4628 341.7432 15.02338728 73977
OAO 2                   
1 03597U 68110A   25326.50451220  .00000263  00000+0  76214-4 0  9991
2 03597  34.9916 143.6250 0004980  52.7288 307.3856 14.47225445  3566
ISIS 1                  
1 03669U 69009A   25327.05717344  .00000155  00000+0  11289-3 0  9992
2 03669  88.4499 166.9491 1707089 304.4810  40.6310 11.30343100336480
SERT 2                  
1 04327U 70009A   25326.85100795  .00000046  00000+0  11905-3 0  9993
2 04327  99.2619 270.8642 0005749  78.3908 341.6025 13.58713911765382
SL-3 R/B                
1 05118U 71028B   25327.09714399  .00024882  00000+0  39339-3 0  9997
2 05118  81.2383 182.8315 0020200 312.6824  47.2722 15.53078934972085
ASTEX 1                 
1 05560U 71089A   25326.90759477  .00000599  00000+0  15270-3 0  9997
2 05560  92.7130 117.2045 0017881  86.1612 274.1638 14.50607117846820
SL-8 R/B                
1 05730U 71119B   25327.10373972  .00009828  00000+0  51879-3 0  9994
2 05730  73.8888  14.5678 0560547   2.8175 357.5907 14.35196100640185
OAO 3 (COPERNICUS)      
1 06153U 72065A   25327.06766262  .00000377  00000+0  81908-4 0  9995
2 06153  35.0044 184.7290 0006599   1.5038 159.7010 14.59881461830607
